GLOBALSTAR M035 [-]     
1 25851U 99037A   24067.62953644 -.00000069  00000+0 -19104-3 0  9991
2 25851  51.9992  15.4193 0013538 307.1588 234.0684 11.04528879 44700
GLOBALSTAR M032 [-]     
1 25852U 99037B   24067.61493754 -.00000061  00000+0  18007-3 0  9994
2 25852  51.9920 232.8455 0010666 101.6009 258.5988 11.19049850 82615
GLOBALSTAR M051 [-]     
1 25853U 99037C   24068.31052705 -.00000080  00000+0 -20302-3 0  9993
2 25853  51.9785  84.7492 0001704 104.5537 255.5463 11.42194646 79173
GLOBALSTAR M030 [-]     
1 25854U 99037D   24068.00573227 -.00000085  00000+0 -20321-3 0  9993
2 25854  51.9865 281.2380 0002925 300.8206  59.2323 11.55085276 96279
GLOBALSTAR M048 [-]     
1 25872U 99041A   24067.52580574 -.00000065  00000+0  13638-3 0  9997
2 25872  51.9410   3.6327 0013622  95.7791  80.2374 11.33843538 72045
GLOBALSTAR M026 [-]     
1 25873U 99041B   24068.51662422 -.00000125  00000+0 -22486-2 0  9999
2 25873  51.9996 136.3084 0001593 178.3274 287.1213 11.06835732 97120
GLOBALSTAR M043 [-]     
1 25874U 99041C   24067.35825093 -.00000030  00000+0  11232-2 0  9997
2 25874  51.9385  93.0675 0012921 236.0989 137.1356 11.25674936 70301
GLOBALSTAR M028 [-]     
1 25875U 99041D   24068.50925628 -.00000080  00000+0  13133-3 0  9999
2 25875  51.9612 141.5965 0064072 140.0423 220.5178 12.50551219131941
